{
  "type": "FeatureCollection",
  "features": [
    {
      "type": "Feature",
      "properties": {
        "norad_id": 48859,
        "name": "GPS BIII-5  (PRN 11)",
        "group": "gps-ops",
        "lat": -48.273480764611406,
        "lon": -148.6159023874866,
        "alt_km": 20124.38020613271,
        "timestamp": "2025-12-04T09:47:37.780405+00:00",
        "meta_object_name": "GPS BIII-5  (PRN 11)",
        "meta_object_id": "2021-054A",
        "meta_epoch": "2025-11-30T17:12:22.002912",
        "meta_mean_motion": 2.00553932,
        "meta_eccentricity": 0.0024653,
        "meta_inclination": 55.2606,
        "meta_ra_of_asc_node": 340.4377,
        "meta_arg_of_pericenter": 232.9477,
        "meta_mean_anomaly": 227.2059,
        "meta_ephemeris_type": 0,
        "meta_classification_type": "U",
        "meta_norad_cat_id": 48859,
        "meta_element_set_no": 999,
        "meta_rev_at_epoch": 3277,
        "meta_bstar": 0,
        "meta_mean_motion_dot": -5.5e-07,
        "meta_mean_motion_ddot": 0,
        "tle_line1": "1 48859U 21054A   25334.71692133 -.00000055  00000+0  00000+0 0  9994",
        "tle_line2": "2 48859  55.2606 340.4377 0024653 232.9477 227.2059  2.00553932 32777"
      },
      "geometry": {
        "type": "Point",
        "coordinates": [
          -148.6159023874866,
          -48.273480764611406
        ]
      }
    },
    {
      "type": "Feature",
      "properties": {
        "norad_id": 55268,
        "name": "GPS BIII-6  (PRN 28)",
        "group": "gps-ops",
        "lat": -51.44909390132403,
        "lon": 94.9657692913845,
        "alt_km": 20185.346405109434,
        "timestamp": "2025-12-04T09:47:37.780416+00:00",
        "meta_object_name": "GPS BIII-6  (PRN 28)",
        "meta_object_id": "2023-009A",
        "meta_epoch": "2025-12-02T18:24:38.544192",
        "meta_mean_motion": 2.00556378,
        "meta_eccentricity": 0.00036484,
        "meta_inclination": 55.1064,
        "meta_ra_of_asc_node": 156.2374,
        "meta_arg_of_pericenter": 358.5606,
        "meta_mean_anomaly": 184.14,
        "meta_ephemeris_type": 0,
        "meta_classification_type": "U",
        "meta_norad_cat_id": 55268,
        "meta_element_set_no": 999,
        "meta_rev_at_epoch": 2130,
        "meta_bstar": 0,
        "meta_mean_motion_dot": 1.13e-06,
        "meta_mean_motion_ddot": 0,
        "tle_line1": "1 55268U 23009A   25336.76711278  .00000113  00000+0  00000+0 0  9991",
        "tle_line2": "2 55268  55.1064 156.2374 0003648 358.5606 184.1400  2.00556378 21301"
      },
      "geometry": {
        "type": "Point",
        "coordinates": [
          94.9657692913845,
          -51.44909390132403
        ]
      }
    },
    {
      "type": "Feature",
      "properties": {
        "norad_id": 62339,
        "name": "GPS BIII-7  (PRN 01)",
        "group": "gps-ops",
        "lat": 3.7888000878678287,
        "lon": -15.254017525580808,
        "alt_km": 20152.92085840177,
        "timestamp": "2025-12-04T09:47:37.780428+00:00",
        "meta_object_name": "GPS BIII-7  (PRN 01)",
        "meta_object_id": "2024-242A",
        "meta_epoch": "2025-12-02T03:41:48.732000",
        "meta_mean_motion": 2.00567227,
        "meta_eccentricity": 0.0011644,
        "meta_inclination": 54.9268,
        "meta_ra_of_asc_node": 342.1698,
        "meta_arg_of_pericenter": 343.3913,
        "meta_mean_anomaly": 193.6606,
        "meta_ephemeris_type": 0,
        "meta_classification_type": "U",
        "meta_norad_cat_id": 62339,
        "meta_element_set_no": 999,
        "meta_rev_at_epoch": 730,
        "meta_bstar": 0,
        "meta_mean_motion_dot": -6.2e-07,
        "meta_mean_motion_ddot": 0,
        "tle_line1": "1 62339U 24242A   25336.15403625 -.00000062  00000+0  00000+0 0  9999",
        "tle_line2": "2 62339  54.9268 342.1698 0011644 343.3913 193.6606  2.00567227  7306"
      },
      "geometry": {
        "type": "Point",
        "coordinates": [
          -15.254017525580808,
          3.7888000878678287
        ]
      }
    },
    {
      "type": "Feature",
      "properties": {
        "norad_id": 64202,
        "name": "GPS BIII-8  (PRN 21)",
        "group": "gps-ops",
        "lat": -11.704739985510344,
        "lon": -132.69778267674477,
        "alt_km": 20189.53689559171,
        "timestamp": "2025-12-04T09:47:37.780439+00:00",
        "meta_object_name": "GPS BIII-8  (PRN 21)",
        "meta_object_id": "2025-116A",
        "meta_epoch": "2025-12-03T06:10:25.375296",
        "meta_mean_motion": 2.00558491,
        "meta_eccentricity": 0.0004994,
        "meta_inclination": 55.0986,
        "meta_ra_of_asc_node": 39.0246,
        "meta_arg_of_pericenter": 306.9577,
        "meta_mean_anomaly": 136.4728,
        "meta_ephemeris_type": 0,
        "meta_classification_type": "U",
        "meta_norad_cat_id": 64202,
        "meta_element_set_no": 999,
        "meta_rev_at_epoch": 394,
        "meta_bstar": 0,
        "meta_mean_motion_dot": -6.8e-07,
        "meta_mean_motion_ddot": 0,
        "tle_line1": "1 64202U 25116A   25337.25723814 -.00000068  00000+0  00000+0 0  9994",
        "tle_line2": "2 64202  55.0986  39.0246 0004994 306.9577 136.4728  2.00558491  3947"
      },
      "geometry": {
        "type": "Point",
        "coordinates": [
          -132.69778267674477,
          -11.704739985510344
        ]
      }
    }
  ]
}